CCSDS_OMM_VERS = 2.0
CREATION_DATE  = 
ORIGINATOR     = 

OBJECT_NAME    = ALOS (DAICHI)
OBJECT_ID      = 2006-002A
CENTER_NAME    = EARTH
REF_FRAME      = TEME
TIME_SYSTEM    = UTC
MEAN_ELEMENT_THEORY = SGP/SGP4

EPOCH          = 2026-02-18T20:23:11.327424
MEAN_MOTION    = 14.69744193
ECCENTRICITY   = .0001692
INCLINATION    = 98.1189
RA_OF_ASC_NODE = 5.9044
ARG_OF_PERICENTER = 56.0917
MEAN_ANOMALY   = 304.0449

EPHEMERIS_TYPE = 0
CLASSIFICATION_TYPE = U
NORAD_CAT_ID   = 28931
ELEMENT_SET_NO = 999
REV_AT_EPOCH   = 7071
BSTAR          = .2348E-3
MEAN_MOTION_DOT = .135E-4
MEAN_MOTION_DDOT = 0

CCSDS_OMM_VERS = 2.0
CREATION_DATE  = 
ORIGINATOR     = 

OBJECT_NAME    = H-2A R/B
OBJECT_ID      = 2006-002B
CENTER_NAME    = EARTH
REF_FRAME      = TEME
TIME_SYSTEM    = UTC
MEAN_ELEMENT_THEORY = SGP/SGP4

EPOCH          = 2026-02-18T20:47:36.216096
MEAN_MOTION    = 15.16009356
ECCENTRICITY   = .0052163
INCLINATION    = 98.2378
RA_OF_ASC_NODE = 195.2825
ARG_OF_PERICENTER = 306.0109
MEAN_ANOMALY   = 53.6292

EPHEMERIS_TYPE = 0
CLASSIFICATION_TYPE = U
NORAD_CAT_ID   = 28932
ELEMENT_SET_NO = 999
REV_AT_EPOCH   = 9158
BSTAR          = .36975E-3
MEAN_MOTION_DOT = .7272E-4
MEAN_MOTION_DDOT = 0

CCSDS_OMM_VERS = 2.0
CREATION_DATE  = 
ORIGINATOR     = 

OBJECT_NAME    = RESURS-DK 1
OBJECT_ID      = 2006-021A
CENTER_NAME    = EARTH
REF_FRAME      = TEME
TIME_SYSTEM    = UTC
MEAN_ELEMENT_THEORY = SGP/SGP4

EPOCH          = 2026-02-18T19:43:03.354240
MEAN_MOTION    = 15.12627687
ECCENTRICITY   = .0003426
INCLINATION    = 69.9324
RA_OF_ASC_NODE = 285.8298
ARG_OF_PERICENTER = 186.9339
MEAN_ANOMALY   = 173.1780

EPHEMERIS_TYPE = 0
CLASSIFICATION_TYPE = U
NORAD_CAT_ID   = 29228
ELEMENT_SET_NO = 999
REV_AT_EPOCH   = 8467
BSTAR          = .11594E-3
MEAN_MOTION_DOT = .1923E-4
MEAN_MOTION_DDOT = 0

CCSDS_OMM_VERS = 2.0
CREATION_DATE  = 
ORIGINATOR     = 

OBJECT_NAME    = CZ-4B R/B
OBJECT_ID      = 2006-046C
CENTER_NAME    = EARTH
REF_FRAME      = TEME
TIME_SYSTEM    = UTC
MEAN_ELEMENT_THEORY = SGP/SGP4

EPOCH          = 2026-02-18T16:13:02.124192
MEAN_MOTION    = 15.16692002
ECCENTRICITY   = .0032658
INCLINATION    = 97.5629
RA_OF_ASC_NODE = 94.6344
ARG_OF_PERICENTER = 336.0544
MEAN_ANOMALY   = 23.9168

EPHEMERIS_TYPE = 0
CLASSIFICATION_TYPE = U
NORAD_CAT_ID   = 29507
ELEMENT_SET_NO = 999
REV_AT_EPOCH   = 5716
BSTAR          = .23966E-3
MEAN_MOTION_DOT = .4687E-4
MEAN_MOTION_DDOT = 0

CCSDS_OMM_VERS = 2.0
CREATION_DATE  = 
ORIGINATOR     = 

OBJECT_NAME    = CZ-2C R/B
OBJECT_ID      = 2007-010B
CENTER_NAME    = EARTH
REF_FRAME      = TEME
TIME_SYSTEM    = UTC
MEAN_ELEMENT_THEORY = SGP/SGP4

EPOCH          = 2026-02-18T20:17:08.086272
MEAN_MOTION    = 14.20239162
ECCENTRICITY   = .0058665
INCLINATION    = 98.3972
RA_OF_ASC_NODE = 164.0696
ARG_OF_PERICENTER = 350.1610
MEAN_ANOMALY   = 9.8414

EPHEMERIS_TYPE = 0
CLASSIFICATION_TYPE = U
NORAD_CAT_ID   = 31114
ELEMENT_SET_NO = 999
REV_AT_EPOCH   = 97704
BSTAR          = .65792E-4
MEAN_MOTION_DOT = .102E-5
MEAN_MOTION_DDOT = 0

CCSDS_OMM_VERS = 2.0
CREATION_DATE  = 
ORIGINATOR     = 

OBJECT_NAME    = COSMO-SKYMED 1
OBJECT_ID      = 2007-023A
CENTER_NAME    = EARTH
REF_FRAME      = TEME
TIME_SYSTEM    = UTC
MEAN_ELEMENT_THEORY = SGP/SGP4

EPOCH          = 2026-02-18T21:00:11.909376
MEAN_MOTION    = 14.96380727
ECCENTRICITY   = .0001438
INCLINATION    = 97.8862
RA_OF_ASC_NODE = 240.7584
ARG_OF_PERICENTER = 92.1173
MEAN_ANOMALY   = 268.0213

EPHEMERIS_TYPE = 0
CLASSIFICATION_TYPE = U
NORAD_CAT_ID   = 31598
ELEMENT_SET_NO = 999
REV_AT_EPOCH   = 1209
BSTAR          = .33004E-3
MEAN_MOTION_DOT = .3679E-4
MEAN_MOTION_DDOT = 0

CCSDS_OMM_VERS = 2.0
CREATION_DATE  = 
ORIGINATOR     = 

OBJECT_NAME    = COSMOS 2428
OBJECT_ID      = 2007-029A
CENTER_NAME    = EARTH
REF_FRAME      = TEME
TIME_SYSTEM    = UTC
MEAN_ELEMENT_THEORY = SGP/SGP4

EPOCH          = 2026-02-18T20:16:30.357984
MEAN_MOTION    = 14.12939264
ECCENTRICITY   = .0008055
INCLINATION    = 70.9402
RA_OF_ASC_NODE = 242.9008
ARG_OF_PERICENTER = 298.3930
MEAN_ANOMALY   = 61.6379

EPHEMERIS_TYPE = 0
CLASSIFICATION_TYPE = U
NORAD_CAT_ID   = 31792
ELEMENT_SET_NO = 999
REV_AT_EPOCH   = 96143
BSTAR          = .13744E-3
MEAN_MOTION_DOT = .208E-5
MEAN_MOTION_DDOT = 0

CCSDS_OMM_VERS = 2.0
CREATION_DATE  = 
ORIGINATOR     = 

OBJECT_NAME    = SL-16 R/B
OBJECT_ID      = 2007-029B
CENTER_NAME    = EARTH
REF_FRAME      = TEME
TIME_SYSTEM    = UTC
MEAN_ELEMENT_THEORY = SGP/SGP4

EPOCH          = 2026-02-18T20:04:06.320928
MEAN_MOTION    = 14.14836613
ECCENTRICITY   = .0002357
INCLINATION    = 70.9747
RA_OF_ASC_NODE = 212.0135
ARG_OF_PERICENTER = 281.1044
MEAN_ANOMALY   = 181.6594

EPHEMERIS_TYPE = 0
CLASSIFICATION_TYPE = U
NORAD_CAT_ID   = 31793
ELEMENT_SET_NO = 999
REV_AT_EPOCH   = 96270
BSTAR          = .94299E-5
MEAN_MOTION_DOT = -.3E-6
MEAN_MOTION_DDOT = 0

CCSDS_OMM_VERS = 2.0
CREATION_DATE  = 
ORIGINATOR     = 

OBJECT_NAME    = KORONAS-FOTON
OBJECT_ID      = 2009-003A
CENTER_NAME    = EARTH
REF_FRAME      = TEME
TIME_SYSTEM    = UTC
MEAN_ELEMENT_THEORY = SGP/SGP4

EPOCH          = 2026-02-18T18:19:45.588576
MEAN_MOTION    = 15.42813087
ECCENTRICITY   = .0009616
INCLINATION    = 82.4306
RA_OF_ASC_NODE = 295.5474
ARG_OF_PERICENTER = 217.7387
MEAN_ANOMALY   = 142.3187

EPHEMERIS_TYPE = 0
CLASSIFICATION_TYPE = U
NORAD_CAT_ID   = 33504
ELEMENT_SET_NO = 999
REV_AT_EPOCH   = 94282
BSTAR          = .2697E-3
MEAN_MOTION_DOT = .11867E-3
MEAN_MOTION_DDOT = 0

CCSDS_OMM_VERS = 2.0
CREATION_DATE  = 
ORIGINATOR     = 

OBJECT_NAME    = CZ-2C R/B
OBJECT_ID      = 2011-030B
CENTER_NAME    = EARTH
REF_FRAME      = TEME
TIME_SYSTEM    = UTC
MEAN_ELEMENT_THEORY = SGP/SGP4

EPOCH          = 2026-02-18T19:56:10.781376
MEAN_MOTION    = 14.81143020
ECCENTRICITY   = .0053944
INCLINATION    = 97.8514
RA_OF_ASC_NODE = 7.4772
ARG_OF_PERICENTER = 52.6563
MEAN_ANOMALY   = 3.3974

EPHEMERIS_TYPE = 0
CLASSIFICATION_TYPE = U
NORAD_CAT_ID   = 37731
ELEMENT_SET_NO = 999
REV_AT_EPOCH   = 78730
BSTAR          = .19122E-3
MEAN_MOTION_DOT = .1469E-4
MEAN_MOTION_DDOT = 0

CCSDS_OMM_VERS = 2.0
CREATION_DATE  = 
ORIGINATOR     = 

OBJECT_NAME    = H-2A R/B
OBJECT_ID      = 2012-025E
CENTER_NAME    = EARTH
REF_FRAME      = TEME
TIME_SYSTEM    = UTC
MEAN_ELEMENT_THEORY = SGP/SGP4

EPOCH          = 2026-02-18T20:31:36.414048
MEAN_MOTION    = 14.94995776
ECCENTRICITY   = .0045229
INCLINATION    = 98.4707
RA_OF_ASC_NODE = 15.4018
ARG_OF_PERICENTER = 16.6038
MEAN_ANOMALY   = 343.6650

EPHEMERIS_TYPE = 0
CLASSIFICATION_TYPE = U
NORAD_CAT_ID   = 38341
ELEMENT_SET_NO = 999
REV_AT_EPOCH   = 74540
BSTAR          = .36194E-3
MEAN_MOTION_DOT = .3969E-4
MEAN_MOTION_DDOT = 0

CCSDS_OMM_VERS = 2.0
CREATION_DATE  = 
ORIGINATOR     = 

OBJECT_NAME    = SHIJIAN-16 (SJ-16)
OBJECT_ID      = 2013-057A
CENTER_NAME    = EARTH
REF_FRAME      = TEME
TIME_SYSTEM    = UTC
MEAN_ELEMENT_THEORY = SGP/SGP4

EPOCH          = 2026-02-18T20:34:49.816992
MEAN_MOTION    = 14.92264377
ECCENTRICITY   = .0016367
INCLINATION    = 74.9701
RA_OF_ASC_NODE = 220.7364
ARG_OF_PERICENTER = 160.2896
MEAN_ANOMALY   = 199.8928

EPHEMERIS_TYPE = 0
CLASSIFICATION_TYPE = U
NORAD_CAT_ID   = 39358
ELEMENT_SET_NO = 999
REV_AT_EPOCH   = 66869
BSTAR          = .83434E-4
MEAN_MOTION_DOT = .824E-5
MEAN_MOTION_DDOT = 0

