ALOS (DAICHI)           
1 28931U 06002A   26049.84943666  .00001350  00000+0  23480-3 0  9996
2 28931  98.1189   5.9044 0001692  56.0917 304.0449 14.69744193 70716
H-2A R/B                
1 28932U 06002B   26049.86639139  .00007272  00000+0  36975-3 0  9998
2 28932  98.2378 195.2825 0052163 306.0109  53.6292 15.16009356 91587
RESURS-DK 1             
1 29228U 06021A   26049.82156660  .00001923  00000+0  11594-3 0  9994
2 29228  69.9324 285.8298 0003426 186.9339 173.1780 15.12627687 84671
CZ-4B R/B               
1 29507U 06046C   26049.67571903  .00004687  00000+0  23966-3 0  9991
2 29507  97.5629  94.6344 0032658 336.0544  23.9168 15.16692002 57162
CZ-2C R/B               
1 31114U 07010B   26049.84523248  .00000102  00000+0  65792-4 0  9990
2 31114  98.3972 164.0696 0058665 350.1610   9.8414 14.20239162977041
COSMO-SKYMED 1          
1 31598U 07023A   26049.87513784  .00003679  00000+0  33004-3 0  9999
2 31598  97.8862 240.7584 0001438  92.1173 268.0213 14.96380727 12098
COSMOS 2428             
1 31792U 07029A   26049.84479581  .00000208  00000+0  13744-3 0  9998
2 31792  70.9402 242.9008 0008055 298.3930  61.6379 14.12939264961439
SL-16 R/B               
1 31793U 07029B   26049.83618427 -.00000030  00000+0  94299-5 0  9992
2 31793  70.9747 212.0135 0002357 281.1044 181.6594 14.14836613962705
KORONAS-FOTON           
1 33504U 09003A   26049.76372209  .00011867  00000+0  26970-3 0  9993
2 33504  82.4306 295.5474 0009616 217.7387 142.3187 15.42813087942823
CZ-2C R/B               
1 37731U 11030B   26049.83068034  .00001469  00000+0  19122-3 0  9996
2 37731  97.8514   7.4772 0053944  52.6563   3.3974 14.81143020787301
H-2A R/B                
1 38341U 12025E   26049.85528257  .00003969  00000+0  36194-3 0  9994
2 38341  98.4707  15.4018 0045229  16.6038 343.6650 14.94995776745409
SHIJIAN-16 (SJ-16)      
1 39358U 13057A   26049.85752103  .00000824  00000+0  83434-4 0  9995
2 39358  74.9701 220.7364 0016367 160.2896 199.8928 14.92264377668693
